ION SCV-008             
1 55051U 23001AU  26068.82429008  .00008336  00000+0  31423-3 0  9992
2 55051  97.5676 163.6060 0015192   8.5420 351.6074 15.27226640176169
STARLINK-35752          
1 66275U 25247L   26068.63367614  .00036408  00000+0  12356-2 0  9993
2 66275  53.1577 191.8054 0001290  62.6386 297.4746 15.30193397 21022
